CTC1_L_00204016-03
1 12409U 26239VW  26037.47803241  .00000000  00000+0  00000-0 0  9994
2 12409 100.0000 180.0000 0000000   0.0000   0.0000 13.56072426    15
CTC1_L_00204016-04
1 12410U 23800TW  26037.47803241  .00000000  00000+0  00000-0 0  9997
2 12410 100.0000 180.0000 0000000   0.0000  90.0000 13.56072426    16
CTC1_L_00204017-01
1 12411U 26088HT  26037.47803241  .00000000  00000+0  00000-0 0  9999
2 12411 100.0000 192.0000 0000000   0.0000 192.0000 13.56072426    13
CTC1_L_00204017-02
1 12412U 26585HO  26037.47803241  .00000000  00000+0  00000-0 0  9992
2 12412 100.0000 192.0000 0000000   0.0000 282.0000 13.56072426    14
CTC1_L_00204017-03
1 12413U 24907QL  26037.47803241  .00000000  00000+0  00000-0 0  9999
2 12413 100.0000 192.0000 0000000   0.0000  12.0000 13.56072426    16
CTC1_L_00204017-04
1 12414U 26725LU  26037.47803241  .00000000  00000+0  00000-0 0  9990
2 12414 100.0000 192.0000 0000000   0.0000 102.0000 13.56072426    17
CTC1_L_00204018-01
1 12415U 22027FR  26037.47803241  .00000000  00000+0  00000-0 0  9992
2 12415 100.0000 204.0000 0000000   0.0000 204.0000 13.56072426    15
CTC1_L_00204018-02
1 12416U 25477EM  26037.47803241  .00000000  00000+0  00000-0 0  9995
2 12416 100.0000 204.0000 0000000   0.0000 294.0000 13.56072426    15
CTC1_L_00204018-03
1 12417U 22910PF  26037.47803241  .00000000  00000+0  00000-0 0  9995
2 12417 100.0000 204.0000 0000000   0.0000  24.0000 13.56072426    17
CTC1_L_00204018-04
1 12418U 22405CM  26037.47803241  .00000000  00000+0  00000-0 0  9995
2 12418 100.0000 204.0000 0000000   0.0000 114.0000 13.56072426    18
CTC1_L_00204019-01
1 12419U 26363PZ  26037.47803241  .00000000  00000+0  00000-0 0  9993
2 12419 100.0000 216.0000 0000000   0.0000 216.0000 13.56072426    15
CTC1_L_00204019-02
1 12420U 26433YQ  26037.47803241  .00000000  00000+0  00000-0 0  9993
2 12420 100.0000 216.0000 0000000   0.0000 306.0000 13.56072426    17
CTC1_L_00204019-03
1 12421U 22516YX  26037.47803241  .00000000  00000+0  00000-0 0  9992
2 12421 100.0000 216.0000 0000000   0.0000  36.0000 13.56072426    18
CTC1_L_00204019-04
1 12422U 26220JS  26037.47803241  .00000000  00000+0  00000-0 0  9999
2 12422 100.0000 216.0000 0000000   0.0000 126.0000 13.56072426    19
CTC1_L_00204020-01
1 12423U 23799ET  26037.47803241  .00000000  00000+0  00000-0 0  9998
2 12423 100.0000 228.0000 0000000   0.0000 228.0000 13.56072426    16
CTC1_L_00204020-02
1 12424U 25357SM  26037.47803241  .00000000  00000+0  00000-0 0  9991
2 12424 100.0000 228.0000 0000000   0.0000 318.0000 13.56072426    17
CTC1_L_00204020-03
1 12425U 22420GU  26037.47803241  .00000000  00000+0  00000-0 0  9990
2 12425 100.0000 228.0000 0000000   0.0000  48.0000 13.56072426    18
CTC1_L_00204020-04
1 12426U 26946HJ  26037.47803241  .00000000  00000+0  00000-0 0  9998
2 12426 100.0000 228.0000 0000000   0.0000 138.0000 13.56072426    19
CTC1_L_00204021-01
1 12427U 26552BJ  26037.47803241  .00000000  00000+0  00000-0 0  9992
2 12427 100.0000 240.0000 0000000   0.0000 240.0000 13.56072426    18
CTC1_L_00204021-02
1 12428U 26847OS  26037.47803241  .00000000  00000+0  00000-0 0  9990
2 12428 100.0000 240.0000 0000000   0.0000 330.0000 13.56072426    19
CTC1_L_00204021-03
1 12429U 23735IH  26037.47803241  .00000000  00000+0  00000-0 0  9994
2 12429 100.0000 240.0000 0000000   0.0000  60.0000 13.56072426    10
CTC1_L_00204021-04
1 12430U 23506MF  26037.47803241  .00000000  00000+0  00000-0 0  9992
2 12430 100.0000 240.0000 0000000   0.0000 150.0000 13.56072426    12
CTC1_L_00204022-01
1 12431U 24869IJ  26037.47803241  .00000000  00000+0  00000-0 0  9996
2 12431 100.0000 252.0000 0000000   0.0000 252.0000 13.56072426    19
CTC1_L_00204022-02
1 12432U 25254YU  26037.47803241  .00000000  00000+0  00000-0 0  9996
2 12432 100.0000 252.0000 0000000   0.0000 342.0000 13.56072426    10
CTC1_L_00204022-03
1 12433U 24931UX  26037.47803241  .00000000  00000+0  00000-0 0  9998
2 12433 100.0000 252.0000 0000000   0.0000  72.0000 13.56072426    11
CTC1_L_00204022-04
1 12434U 25039HY  26037.47803241  .00000000  00000+0  00000-0 0  9999
2 12434 100.0000 252.0000 0000000   0.0000 162.0000 13.56072426    12
CTC1_L_00204023-01
1 12435U 26238YR  26037.47803241  .00000000  00000+0  00000-0 0  9992
2 12435 100.0000 264.0000 0000000   0.0000 264.0000 13.56072426    19
CTC1_L_00204023-02
1 12436U 26716KB  26037.47803241  .00000000  00000+0  00000-0 0  9994
2 12436 100.0000 264.0000 0000000   0.0000 354.0000 13.56072426    10
CTC1_L_00204023-03
1 12437U 23057CT  26037.47803241  .00000000  00000+0  00000-0 0  9990
2 12437 100.0000 264.0000 0000000   0.0000  84.0000 13.56072426    11
CTC1_L_00204023-04
1 12438U 25573YT  26037.47803241  .00000000  00000+0  00000-0 0  9996
2 12438 100.0000 264.0000 0000000   0.0000 174.0000 13.56072426    12
CTC1_L_00204024-01
1 12439U 26815IP  26037.47803241  .00000000  00000+0  00000-0 0  9997
2 12439 100.0000 276.0000 0000000   0.0000 276.0000 13.56072426    19
CTC1_L_00204024-02
1 12440U 23460ZF  26037.47803241  .00000000  00000+0  00000-0 0  9992
2 12440 100.0000 276.0000 0000000   0.0000   6.0000 13.56072426    12
CTC1_L_00204024-03
1 12441U 23100WV  26037.47803241  .00000000  00000+0  00000-0 0  9994
2 12441 100.0000 276.0000 0000000   0.0000  96.0000 13.56072426    12
CTC1_L_00204024-04
1 12442U 23411TA  26037.47803241  .00000000  00000+0  00000-0 0  9990
2 12442 100.0000 276.0000 0000000   0.0000 186.0000 13.56072426    13
CTC1_L_00204025-01
1 12443U 24739FW  26037.47803241  .00000000  00000+0  00000-0 0  9995
2 12443 100.0000 288.0000 0000000   0.0000 288.0000 13.56072426    10
CTC1_L_00204025-02
1 12444U 25441AZ  26037.47803241  .00000000  00000+0  00000-0 0  9997
2 12444 100.0000 288.0000 0000000   0.0000  18.0000 13.56072426    12
CTC1_L_00204025-03
1 12445U 26142SW  26037.47803241  .00000000  00000+0  00000-0 0  9997
2 12445 100.0000 288.0000 0000000   0.0000 108.0000 13.56072426    13
CTC1_L_00204025-04
1 12446U 25562TL  26037.47803241  .00000000  00000+0  00000-0 0  9993
2 12446 100.0000 288.0000 0000000   0.0000 198.0000 13.56072426    13
CTC1_L_00204026-01
1 12447U 23293KE  26037.47803241  .00000000  00000+0  00000-0 0  9993
2 12447 100.0000 300.0000 0000000   0.0000 300.0000 13.56072426    14
CTC1_L_00204026-02
1 12448U 25734WS  26037.47803241  .00000000  00000+0  00000-0 0  9996
2 12448 100.0000 300.0000 0000000   0.0000  30.0000 13.56072426    15
CTC1_L_00204026-03
1 12449U 26290IF  26037.47803241  .00000000  00000+0  00000-0 0  9995
2 12449 100.0000 300.0000 0000000   0.0000 120.0000 13.56072426    16
CTC1_L_00204026-04
1 12450U 22740TV  26037.47803241  .00000000  00000+0  00000-0 0  9993
2 12450 100.0000 300.0000 0000000   0.0000 210.0000 13.56072426    18
CTC1_L_00204027-01
1 12451U 23203GU  26037.47803241  .00000000  00000+0  00000-0 0  9999
2 12451 100.0000 312.0000 0000000   0.0000 312.0000 13.56072426    15
CTC1_L_00204027-02
1 12452U 23914YM  26037.47803241  .00000000  00000+0  00000-0 0  9999
2 12452 100.0000 312.0000 0000000   0.0000  42.0000 13.56072426    16
CTC1_L_00204027-03
1 12453U 25335KB  26037.47803241  .00000000  00000+0  00000-0 0  9999
2 12453 100.0000 312.0000 0000000   0.0000 132.0000 13.56072426    17
CTC1_L_00204027-04
1 12454U 26207SR  26037.47803241  .00000000  00000+0  00000-0 0  9999
2 12454 100.0000 312.0000 0000000   0.0000 222.0000 13.56072426    18
CTC1_L_00204028-01
1 12455U 26409ZO  26037.47803241  .00000000  00000+0  00000-0 0  9994
2 12455 100.0000 324.0000 0000000   0.0000 324.0000 13.56072426    15
CTC1_L_00204028-02
1 12456U 26642VJ  26037.47803241  .00000000  00000+0  00000-0 0  9994
2 12456 100.0000 324.0000 0000000   0.0000  54.0000 13.56072426    16
CTC1_L_00204028-03
1 12457U 26262AP  26037.47803241  .00000000  00000+0  00000-0 0  9993
2 12457 100.0000 324.0000 0000000   0.0000 144.0000 13.56072426    17
CTC1_L_00204028-04
1 12458U 22488IU  26037.47803241  .00000000  00000+0  00000-0 0  9990
2 12458 100.0000 324.0000 0000000   0.0000 234.0000 13.56072426    18
CTC1_L_00204029-01
1 12459U 25174FM  26037.47803241  .00000000  00000+0  00000-0 0  9996
2 12459 100.0000 336.0000 0000000   0.0000 336.0000 13.56072426    15
CTC1_L_00204029-02
1 12460U 24215EC  26037.47803241  .00000000  00000+0  00000-0 0  9993
2 12460 100.0000 336.0000 0000000   0.0000  66.0000 13.56072426    17
CTC1_L_00204029-03
1 12461U 26915XS  26037.47803241  .00000000  00000+0  00000-0 0  9993
2 12461 100.0000 336.0000 0000000   0.0000 156.0000 13.56072426    18
CTC1_L_00204029-04
1 12462U 25503LS  26037.47803241  .00000000  00000+0  00000-0 0  9996
2 12462 100.0000 336.0000 0000000   0.0000 246.0000 13.56072426    19
CTC1_L_00204030-01
1 12463U 24850FQ  26037.47803241  .00000000  00000+0  00000-0 0  9991
2 12463 100.0000 348.0000 0000000   0.0000 348.0000 13.56072426    16
CTC1_L_00204030-02
1 12464U 25069DS  26037.47803241  .00000000  00000+0  00000-0 0  9995
2 12464 100.0000 348.0000 0000000   0.0000  78.0000 13.56072426    17
CTC1_L_00204030-03
1 12465U 23327ET  26037.47803241  .00000000  00000+0  00000-0 0  9991
2 12465 100.0000 348.0000 0000000   0.0000 168.0000 13.56072426    18
CTC1_L_00204030-04
1 12466U 22298PS  26037.47803241  .00000000  00000+0  00000-0 0  9998
2 12466 100.0000 348.0000 0000000   0.0000 258.0000 13.56072426    19
